$$SOE
2460721.500000000, A.D. 2025-Feb-15 00:00:00.0000, 2.067932674501045E+08, -4.569959296661448E+08, 9.722613118817028E+07,
2460728.500000000, A.D. 2025-Feb-22 00:00:00.0000, 2.152994218479210E+08, -4.528030491347141E+08, 9.654381833781117E+07,
2460735.500000000, A.D. 2025-Mar-01 00:00:00.0000, 2.237270610129800E+08, -4.484451015284619E+08, 9.582629561148678E+07,
2460742.500000000, A.D. 2025-Mar-08 00:00:00.0000, 2.320729426763044E+08, -4.439233311037213E+08, 9.507375070407824E+07,
2460749.500000000, A.D. 2025-Mar-15 00:00:00.0000, 2.403338375584504E+08, -4.392390374225295E+08, 9.428638317218167E+07,
2460756.500000000, A.D. 2025-Mar-22 00:00:00.0000, 2.485065279891559E+08, -4.343935751662070E+08, 9.346440474320686E+07,
2460763.500000000, A.D. 2025-Mar-29 00:00:00.0000, 2.565878079158935E+08, -4.293883561997833E+08, 9.260803931510317E+07,
2460770.500000000, A.D. 2025-Apr-05 00:00:00.0000, 2.645744846276351E+08, -4.242248507480213E+08, 9.171752287299427E+07,
2460777.500000000, A.D. 2025-Apr-12 00:00:00.0000, 2.724633802687111E+08, -4.189045875785025E+08, 9.079310350765210E+07,
2460784.500000000, A.D. 2025-Apr-19 00:00:00.0000, 2.802513329561201E+08, -4.134291540722867E+08, 8.983504148063397E+07,
2460791.500000000, A.D. 2025-Apr-26 00:00:00.0000, 2.879351977724746E+08, -4.078001963841227E+08, 8.884360929421827E+07,
2460798.500000000, A.D. 2025-May-03 00:00:00.0000, 2.955118477487584E+08, -4.020194196719362E+08, 8.781909175695784E+07,
2460805.500000000, A.D. 2025-May-10 00:00:00.0000, 3.029781748658887E+08, -3.960885883857929E+08, 8.676178604261151E+07,
2460812.500000000, A.D. 2025-May-17 00:00:00.0000, 3.103310911121255E+08, -3.900095266561072E+08, 8.567200173537256E+07,
2460819.500000000, A.D. 2025-May-24 00:00:00.0000, 3.175675297706661E+08, -3.837841188341795E+08, 8.455006084067021E+07,
2460826.500000000, A.D. 2025-May-31 00:00:00.0000, 3.246844473558367E+08, -3.774143098729656E+08, 8.339629774852109E+07,
2460833.500000000, A.D. 2025-Jun-07 00:00:00.0000, 3.316788257973713E+08, -3.709021043427557E+08, 8.221105928472319E+07,
2460840.500000000, A.D. 2025-Jun-14 00:00:00.0000, 3.385476725076504E+08, -3.642495647479551E+08, 8.099470501201136E+07,
2460847.500000000, A.D. 2025-Jun-21 00:00:00.0000, 3.452880195474035E+08, -3.574588124140766E+08, 7.974760740130417E+07,
2460854.500000000, A.D. 2025-Jun-28 00:00:00.0000, 3.518969250179237E+08, -3.505320291771122E+08, 7.847015172946633E+07,
2460861.500000000, A.D. 2025-Jul-05 00:00:00.0000, 3.583714751642863E+08, -3.434714577166336E+08, 7.716273601874936E+07,
2460868.500000000, A.D. 2025-Jul-12 00:00:00.0000, 3.647087859999956E+08, -3.362794013367823E+08, 7.582577106154627E+07,
2460875.500000000, A.D. 2025-Jul-19 00:00:00.0000, 3.709060046437184E+08, -3.289582237695881E+08, 7.445968046638668E+07,
2460882.500000000, A.D. 2025-Jul-26 00:00:00.0000, 3.769603105785590E+08, -3.215103490567901E+08, 7.306490070152882E+07,
2460889.500000000, A.D. 2025-Aug-02 00:00:00.0000, 3.828689168991398E+08, -3.139382614879625E+08, 7.164188113194938E+07,
2460896.500000000, A.D. 2025-Aug-09 00:00:00.0000, 3.886290715691935E+08, -3.062445056085407E+08, 7.019108404615910E+07,
2460903.500000000, A.D. 2025-Aug-16 00:00:00.0000, 3.942380587655260E+08, -2.984316863591752E+08, 6.871298466014794E+07,
2460910.500000000, A.D. 2025-Aug-23 00:00:00.0000, 3.996932006000088E+08, -2.905024693273536E+08, 6.720807107243636E+07,
2460917.500000000, A.D. 2025-Aug-30 00:00:00.0000, 4.049918595484951E+08, -2.824595803945328E+08, 6.567684419820385E+07,
2460924.500000000, A.D. 2025-Sep-06 00:00:00.0000, 4.101314401692559E+08, -2.743058037768412E+08, 6.411981789457118E+07,
2460931.500000000, A.D. 2025-Sep-13 00:00:00.0000, 4.151093884401075E+08, -2.660439809412152E+08, 6.253751922748683E+07,
2460938.500000000, A.D. 2025-Sep-20 00:00:00.0000, 4.199231919863926E+08, -2.576770120393216E+08, 6.093048844525895E+07,
2460945.500000000, A.D. 2025-Sep-27 00:00:00.0000, 4.245703822580261E+08, -2.492078567452319E+08, 5.929927881573892E+07,
2460952.500000000, A.D. 2025-Oct-04 00:00:00.0000, 4.290485366391755E+08, -2.406395339559917E+08, 5.764445655628077E+07,
2460959.500000000, A.D. 2025-Oct-11 00:00:00.0000, 4.333552801167947E+08, -2.319751212967736E+08, 5.596660081364722E+07,
2460966.500000000, A.D. 2025-Oct-18 00:00:00.0000, 4.374882867911578E+08, -2.232177547035063E+08, 5.426630364518801E+07,
2460973.500000000, A.D. 2025-Oct-25 00:00:00.0000, 4.414452813672119E+08, -2.143706280702393E+08, 5.254416998903047E+07,
2460980.500000000, A.D. 2025-Nov-01 00:00:00.0000, 4.452240406653519E+08, -2.054369929439013E+08, 5.080081762047724E+07,
2460987.500000000, A.D. 2025-Nov-08 00:00:00.0000, 4.488223951851038E+08, -1.964201582959808E+08, 4.903687708831960E+07,
2460994.500000000, A.D. 2025-Nov-15 00:00:00.0000, 4.522382308680441E+08, -1.873234904276225E+08, 4.725299161199822E+07,
2461001.500000000, A.D. 2025-Nov-22 00:00:00.0000, 4.554694914608420E+08, -1.781504127853791E+08, 4.544981691985172E+07,
2461008.500000000, A.D. 2025-Nov-29 00:00:00.0000, 4.585141813242977E+08, -1.689044045496640E+08, 4.362802113473670E+07,
2461015.500000000, A.D. 2025-Dec-06 00:00:00.0000, 4.613703664111285E+08, -1.595889981301988E+08, 4.178828490464915E+07,
2461022.500000000, A.D. 2025-Dec-13 00:00:00.0000, 4.640361738449769E+08, -1.502077789379189E+08, 3.993130146267164E+07,
2461029.500000000, A.D. 2025-Dec-20 00:00:00.0000, 4.665097935911098E+08, -1.407643864079821E+08, 3.805777637862837E+07,
2461036.500000000, A.D. 2025-Dec-27 00:00:00.0000, 4.687894811432037E+08, -1.312625136797221E+08, 3.616842731218961E+07,
2461043.500000000, A.D. 2026-Jan-03 00:00:00.0000, 4.708735597659290E+08, -1.217059065467509E+08, 3.426398385072004E+07,
2461050.500000000, A.D. 2026-Jan-10 00:00:00.0000, 4.727604224018565E+08, -1.120983623538993E+08, 3.234518736610567E+07,
2461057.500000000, A.D. 2026-Jan-17 00:00:00.0000, 4.744485334738177E+08, -1.024437289302662E+08, 3.041279086153536E+07,
2461064.500000000, A.D. 2026-Jan-24 00:00:00.0000, 4.759364306591931E+08, -9.274590353343676E+07, 2.846755880276224E+07,
2461071.500000000, A.D. 2026-Jan-31 00:00:00.0000, 4.772227266580299E+08, -8.300883181024171E+07, 2.651026693091214E+07,
2461078.500000000, A.D. 2026-Feb-07 00:00:00.0000, 4.783061110145441E+08, -7.323650682980677E+07, 2.454170204626768E+07,
2461085.500000000, A.D. 2026-Feb-14 00:00:00.0000, 4.791853522419706E+08, -6.343296820288067E+07, 2.256266173811607E+07,
2461092.500000000, A.D. 2026-Feb-21 00:00:00.0000, 4.798593006338084E+08, -5.360230070842804E+07, 2.057395407166312E+07,
2461099.500000000, A.D. 2026-Feb-28 00:00:00.0000, 4.803268906727446E+08, -4.374863127083018E+07, 1.857639742544524E+07,
2461106.500000000, A.D. 2026-Mar-07 00:00:00.0000, 4.805871409769925E+08, -3.387612623532470E+07, 1.657082050871255E+07,
2461113.500000000, A.D. 2026-Mar-14 00:00:00.0000, 4.806391545572926E+08, -2.398899127324798E+07, 1.455806211338506E+07,
2461120.500000000, A.D. 2026-Mar-21 00:00:00.0000, 4.804821211642094E+08, -1.409147101719478E+07, 1.253897067373309E+07,
2461127.500000000, A.D. 2026-Mar-28 00:00:00.0000, 4.801153197145581E+08, -4.187847395808835E+06, 1.051440390230224E+07,
2461134.500000000, A.D. 2026-Apr-04 00:00:00.0000, 4.795381201918094E+08, 5.717562366569658E+06, 8.485228478709809E+06,
2461141.500000000, A.D. 2026-Apr-11 00:00:00.0000, 4.787499852920957E+08, 1.562040772533250E+07, 6.452319736807390E+06,
2461148.500000000, A.D. 2026-Apr-18 00:00:00.0000, 4.777504719720983E+08, 2.551630675934866E+07, 4.416561335010737E+06,
2461155.500000000, A.D. 2026-Apr-25 00:00:00.0000, 4.765392329413638E+08, 3.540084809786601E+07, 2.378844906755513E+06,
2461162.500000000, A.D. 2026-May-02 00:00:00.0000, 4.751160181265307E+08, 4.526959280117352E+07, 3.400696858329866E+05,
2461169.500000000, A.D. 2026-May-09 00:00:00.0000, 4.734806762289568E+08, 5.511807612880507E+07, -1.698857910243571E+06,
2461176.500000000, A.D. 2026-May-16 00:00:00.0000, 4.716331567500223E+08, 6.494180933315661E+07, -3.737024762278326E+06,
2461183.500000000, A.D. 2026-May-23 00:00:00.0000, 4.695735125309815E+08, 7.473628250075445E+07, -5.773511518100668E+06,
2461190.500000000, A.D. 2026-May-30 00:00:00.0000, 4.673019007250038E+08, 8.449696876192962E+07, -7.807392831004992E+06,
2461197.500000000, A.D. 2026-Jun-06 00:00:00.0000, 4.648185818827985E+08, 9.421932659534395E+07, -9.837737606240287E+06,
2461204.500000000, A.D. 2026-Jun-13 00:00:00.0000, 4.621239208144122E+08, 1.038988004243509E+08, -1.186360957577747E+07,
2461211.500000000, A.D. 2026-Jun-20 00:00:00.0000, 4.592183887208159E+08, 1.135308224302379E+08, -1.388406791644583E+07,
2461218.500000000, A.D. 2026-Jun-27 00:00:00.0000, 4.561025648926601E+08, 1.231108152419806E+08, -1.589816778347495E+07,
2461225.500000000, A.D. 2026-Jul-04 00:00:00.0000, 4.527771379724679E+08, 1.326341947266607E+08, -1.790496082280560E+07,
2461232.500000000, A.D. 2026-Jul-11 00:00:00.0000, 4.492429070304822E+08, 1.420963727473028E+08, -1.990349569627877E+07,
2461239.500000000, A.D. 2026-Jul-18 00:00:00.0000, 4.455007825430556E+08, 1.514927599123186E+08, -2.189281862609742E+07,
2461246.500000000, A.D. 2026-Jul-25 00:00:00.0000, 4.415517872941965E+08, 1.608187683175969E+08, -2.387197396049951E+07,
2461253.500000000, A.D. 2026-Aug-01 00:00:00.0000, 4.373970572447063E+08, 1.700698142312947E+08, -2.584000476883788E+07,
2461260.500000000, A.D. 2026-Aug-08 00:00:00.0000, 4.330378425803930E+08, 1.792413206832807E+08, -2.779595348852307E+07,
2461267.500000000, A.D. 2026-Aug-15 00:00:00.0000, 4.284755093505940E+08, 1.883287204065515E+08, -2.973886262485609E+07,
2461274.500000000, A.D. 2026-Aug-22 00:00:00.0000, 4.237115409304311E+08, 1.973274603487341E+08, -3.166777533360907E+07,
2461281.500000000, A.D. 2026-Aug-29 00:00:00.0000, 4.187475370132394E+08, 2.062330063798762E+08, -3.358173578783149E+07,
2461288.500000000, A.D. 2026-Sep-05 00:00:00.0000, 4.135852122657634E+08, 2.150408453266438E+08, -3.547978975861038E+07,
$$EOE